#aV2009 11  9  0  0   .00000000      96 DD+AD WGS84 FIT  NGA
## 1557  86400.00000000   900.00000000 55144  .0000000000000
+   31     1  2  3  4  5  6  7  9 10 11 12 13 14 15 16 17 18
+         19 20 21 22 23 24 25 26 27 28 29 30 31 32  0  0  0
+          0  0  0  0  0  0  0  0  0  0  0  0  0  0  0  0  0
+          0  0  0  0  0  0  0  0  0  0  0  0  0  0  0  0  0
+          0  0  0  0  0  0  0  0  0  0  0  0  0  0  0  0  0
++         0  0  0  0  0  0  0  0  0  0  0  0  0  0  0  0  0
++         0  0  0  0  0  0  0  0  0  0  0  0  0  0  0  0  0
++         0  0  0  0  0  0  0  0  0  0  0  0  0  0  0  0  0
++         0  0  0  0  0  0  0  0  0  0  0  0  0  0  0  0  0
++         0  0  0  0  0  0  0  0  0  0  0  0  0  0  0  0  0
%c cc cc ccc ccc cccc cccc cccc cccc ccccc ccccc ccccc ccccc
%c cc cc ccc ccc cccc cccc cccc cccc ccccc ccccc ccccc ccccc
%f  0.0000000  0.000000000  0.00000000000  0.000000000000000
%f  0.0000000  0.000000000  0.00000000000  0.000000000000000
%i    0    0    0    0      0      0      0      0         0
%i    0    0    0    0      0      0      0      0         0
/*      NGA, ST. LOUIS,MO.                                  
/*   EPHEMERIS COMPUTED FROM  3 DAYS OF DATA                
/* CCCCCCCCCCCCCCCCCCCCCCCCCCCCCCCCCCCCCCCCCCCCCCCCCCCCCCCCC
/* CCCCCCCCCCCCCCCCCCCCCCCCCCCCCCCCCCCCCCCCCCCCCCCCCCCCCCCCC
*  2009 11  9 22 45   .00000000                                                 
P  1 -17344.594991 -17580.246740   9810.290100    -64.213331                    
V  1  -3883.875328 -12196.253499 -28323.753813      -.020064                    
P  2  12665.255842 -13503.583739  18819.634268    189.896700                    
V  2  24216.599787   2299.004631 -15021.195918       .041896                    
P  3  -8998.151604  24636.771927  -3066.590386    472.384924                    
V  3  -5256.517334   1451.445136  30868.538516       .052524                    
P  4  23034.312878  -7386.459865  11222.326664   -351.509144                    
V  4  14291.797712   3233.035250 -26465.111152      -.181563                    
P  5    798.048564 -21435.626668  15599.573403    -47.594477                    
V  5  11220.453830  16513.338131  22173.329601       .071444                    
P  6 -13093.452251  23046.416873    340.612856    260.153334                    
V  6  -3175.440162  -2023.490499  31202.598172       .023054                    
P  7  23660.184085   7440.146899   9702.134053      8.012504                    
V  7 -12340.932497   1753.136626  28561.286499      -.007037                    
P  9  -7877.991247 -14470.468903 -21503.802271     87.617149                    
V  9  25723.240216   -514.644372  -9319.764676       .020940                    
P 10   4262.599624 -19110.086142  17617.127424    -27.904224                    
V 10  12070.974732  19497.932074  18396.435730      -.009043                    
P 11  12155.910284  13775.691755 -19514.904391    -28.386144                    
V 11 -23774.059580   6140.665235 -10232.021825      -.019251                    
P 12 -10641.328811 -24246.260626  -2755.201771   -192.326480                    
V 12   3827.536917   1994.825779 -31591.136265       .053033                    
P 13  13289.954629   6074.398848  22055.953913    306.150328                    
V 13 -16203.581162  23099.545522   3366.681123       .001785                    
P 14 -19078.908140  10287.655398 -15123.116832    -26.548344                    
V 14   9653.301347 -16956.385673 -23622.045564       .048664                    
P 15   5170.378722 -23609.360567 -10888.053816   -320.244189                    
V 15   9437.271862 -10561.591917  27389.171109       .002956                    
P 16  -7331.112397  15854.283217  19978.376370     -6.744439                    
V 16 -12450.952391 -22074.689307  13220.182059      -.041595                    
P 17  19202.364878 -10756.987615 -14647.705560    100.838359                    
V 17  -8329.289044  17016.906745 -23498.343205       .035609                    
P 18 -18246.024218 -12872.440103 -14405.132761     26.468482                    
V 18  -6232.349469 -17721.533521  22949.782471       .027560                    
P 19  -5196.434026  22480.736111 -12865.752886      2.091903                    
V 19 -11813.268654  11823.817339  25627.481039      -.019384                    
P 20  13983.317927  22573.018186   1265.273141     67.991174                    
V 20  -2109.033979   3231.681930 -31194.900992      -.008688                    
P 21 -25805.869987  -5385.161609   5617.489640    -20.392172                    
V 21   6808.376674  -2659.243081  29673.955201      -.023643                    
P 22 -16673.681679    273.922591 -20521.244392    186.732048                    
V 22 -10930.914429 -24164.177221   8413.442021      -.008111                    
P 23   4835.053925  17322.733365  19412.652194    386.257679                    
V 23 -14342.091768  20258.416618 -14779.826045      -.005177                    
P 24 -15701.458389 -13312.067916  16757.116327    235.292422                    
V 24  21296.114317   -367.075577  20044.673224       .029889                    
P 25  19013.912564   9775.091751  15987.359485     10.958792                    
V 25 -19579.725512   2918.081451  22151.678932       .174842                    
P 26 -17703.717264   1936.571217 -20399.089892      4.360516                    
V 26  13794.473509 -20241.310538 -13812.298606      -.019005                    
P 27  -3768.301020 -14341.797385 -21353.678564     98.519402                    
V 27  28705.584453  -1029.174975  -4192.142766       .032050                    
P 28  16884.347584   3261.005439 -19883.063330    -25.501358                    
V 28  10737.779997  23841.523751  12440.983898       .002889                    
P 29 -11951.460845  -9587.719033  21785.630687     73.021244                    
V 29  15227.209113 -22841.506770  -1664.618582       .029502                    
P 30 -17213.201148 -18709.211921   7406.292626    191.934604                    
V 30  -2574.493891 -10001.461867 -29643.600920       .031923                    
P 31 -21159.921760   8703.819362  13823.365326    -61.417656                    
V 31 -17050.543983  -2230.187951 -24942.241814       .007946                    
P 32   7010.268066  25201.865144  -5063.218891    161.150097                    
V 32  -5026.810807  -5297.219156 -30717.680804      -.075779                    
EOF
